NORAD_CAT_ID,OBJECT_NAME,OBJECT_TYPE,EPOCH,MEAN_MOTION,ECCENTRICITY,INCLINATION,RA_OF_ASC_NODE,ARG_OF_PERICENTER,MEAN_ANOMALY,BSTAR,MEAN_MOTION_DOT,MEAN_MOTION_DDOT,TLE_LINE0,TLE_LINE1,TLE_LINE2,SEMIMAJOR_AXIS,PERIOD,APOGEE,PERIGEE,DECAYED
53276.0,STARLINK-4174,PAYLOAD,2023-02-28 19:33:44,15.08855796,0.0001626,53.2152,104.09,79.0349,281.0826,0.00033065,4.98e-05,0.0,0 STARLINK-4174,1 53276U 22086AL  23059.81509644  .00004980  00000-0  33065-3 0  9998,2 53276  53.2152 104.0900 0001626  79.0349 281.0826 15.08855796 34394,6917.832,95.437,540.822,538.572,0.0
53276.0,STARLINK-4174,PAYLOAD,2023-03-01 03:30:40,15.0880138,0.0001142,53.2154,102.6081,105.7872,254.3246,-0.0014779,-0.00023706,0.0,0 STARLINK-4174,1 53276U 22086AL  23060.14630674 -.00023706  00000-0 -14779-2 0  9993,2 53276  53.2154 102.6081 0001142 105.7872 254.3246 15.08801380 34277,6917.998,95.44,540.653,539.073,0.0
53276.0,STARLINK-4174,PAYLOAD,2023-03-01 19:24:34,15.08802427,0.0001223,53.2167,99.635,99.5584,260.5546,0.00086799,0.00013539,0.0,0 STARLINK-4174,1 53276U 22086AL  23060.80872948  .00013539  00000-0  86799-3 0  9991,2 53276  53.2167  99.6350 0001223  99.5584 260.5546 15.08802427 34371,6917.995,95.44,540.706,539.014,0.0
53276.0,STARLINK-4174,PAYLOAD,2023-03-02 19:15:21,15.08863052,0.0001042,53.2144,95.1739,90.3302,269.7809,0.0016577,0.00026209,0.0,0 STARLINK-4174,1 53276U 22086AL  23061.80233069  .00026209  00000-0  16577-2 0  9991,2 53276  53.2144  95.1739 0001042  90.3302 269.7809 15.08863052 34525,6917.81,95.436,540.396,538.954,0.0
53276.0,STARLINK-4174,PAYLOAD,2023-03-03 09:33:48,15.08898841,0.000112,53.2144,92.4977,88.5867,271.5253,0.0021515,0.00034175,0.0,0 STARLINK-4174,1 53276U 22086AL  23062.39847547  .00034175  00000-0  21515-2 0  9997,2 53276  53.2144  92.4977 0001120  88.5867 271.5253 15.08898841 34787,6917.701,95.434,540.34,538.791,0.0
53276.0,STARLINK-4174,PAYLOAD,2023-03-03 19:06:06,15.08883454,0.0001318,53.214,90.7121,83.0268,277.0874,0.0012774,0.00020124,0.0,0 STARLINK-4174,1 53276U 22086AL  23062.79591076  .00020124  00000-0  12774-2 0  9990,2 53276  53.2140  90.7121 0001318  83.0268 277.0874 15.08883454 34671,6917.748,95.435,540.524,538.701,0.0
53276.0,STARLINK-4174,PAYLOAD,2023-03-04 06:13:48,15.08857921,0.0001564,53.2146,88.6319,87.7159,272.4012,0.0016846,0.00026637,0.0,0 STARLINK-4174,1 53276U 22086AL  23063.25959210  .00026637  00000-0  16846-2 0  9999,2 53276  53.2146  88.6319 0001564  87.7159 272.4012 15.08857921 34746,6917.826,95.436,540.773,538.609,0.0
53276.0,STARLINK-4174,PAYLOAD,2023-03-04 07:49:11,15.08858539,0.0001617,53.2145,88.3344,86.3469,273.7708,0.0019225,0.00030457,0.0,0 STARLINK-4174,1 53276U 22086AL  23063.32583175  .00030457  00000-0  19225-2 0  9999,2 53276  53.2145  88.3344 0001617  86.3469 273.7708 15.08858539 34920,6917.824,95.436,540.807,538.57,0.0
53276.0,STARLINK-4174,PAYLOAD,2023-03-04 18:56:54,15.08854655,0.0002161,53.2143,86.2525,92.2614,267.8626,0.0016994,0.00026873,0.0,0 STARLINK-4174,1 53276U 22086AL  23063.78951500  .00026873  00000-0  16994-2 0  9997,2 53276  53.2143  86.2525 0002161  92.2614 267.8626 15.08854655 34826,6917.836,95.437,541.196,538.206,0.0
53276.0,STARLINK-4174,PAYLOAD,2023-03-05 01:18:26,15.08836963,0.0002089,53.2148,85.0631,103.2976,256.8249,0.0012452,0.00019583,0.0,0 STARLINK-4174,1 53276U 22086AL  23064.05447668  .00019583  00000-0  12452-2 0  9998,2 53276  53.2148  85.0631 0002089 103.2976 256.8249 15.08836963 34864,6917.89,95.438,541.2,538.31,0.0
53276.0,STARLINK-4174,PAYLOAD,2023-03-05 07:39:59,15.08841661,0.0001733,53.2151,83.874,100.4525,259.6662,0.00191,0.00030242,0.0,0 STARLINK-4174,1 53276U 22086AL  23064.31943738  .00030242  00000-0  19100-2 0  9998,2 53276  53.2151  83.8740 0001733 100.4525 259.6662 15.08841661 35074,6917.875,95.437,540.939,538.541,0.0
53276.0,STARLINK-4174,PAYLOAD,2023-03-06 05:55:23,15.08847098,0.0002073,53.2157,79.7107,99.3494,260.7733,0.00059305,9.165e-05,0.0,0 STARLINK-4174,1 53276U 22086AL  23065.24679872  .00009165  00000-0  59305-3 0  9998,2 53276  53.2157  79.7107 0002073  99.3494 260.7733 15.08847098 35049,6917.859,95.437,541.158,538.29,0.0
53276.0,STARLINK-4174,PAYLOAD,2023-03-06 07:30:46,15.08849264,0.0002104,53.216,79.4124,102.8487,257.274,0.00054485,8.396e-05,0.0,0 STARLINK-4174,1 53276U 22086AL  23065.31303741  .00008396  00000-0  54485-3 0  9994,2 53276  53.2160  79.4124 0002104 102.8487 257.2740 15.08849264 35222,6917.852,95.437,541.173,538.262,0.0
53276.0,STARLINK-4174,PAYLOAD,2023-03-07 04:10:48,15.08820251,0.0001398,53.2157,75.5469,93.535,266.5802,-0.00010396,-1.941e-05,0.0,0 STARLINK-4174,1 53276U 22086AL  23066.17417247 -.00001941  00000-0 -10396-3 0  9990,2 53276  53.2157  75.5469 0001398  93.5350 266.5802 15.08820251 35188,6917.941,95.439,540.773,538.839,0.0
53276.0,STARLINK-4174,PAYLOAD,2023-03-07 16:53:53,15.08836239,0.0001362,53.216,73.1683,93.8474,266.2674,0.00025404,3.757e-05,0.0,0 STARLINK-4174,1 53276U 22086AL  23066.70409453  .00003757  00000-0  25404-3 0  9990,2 53276  53.2160  73.1683 0001362  93.8474 266.2674 15.08836239 35261,6917.892,95.438,540.699,538.815,0.0
53276.0,STARLINK-4174,PAYLOAD,2023-03-08 05:36:58,15.08862495,0.0001355,53.2157,70.7881,84.2615,275.8532,0.00090271,0.00014117,0.0,0 STARLINK-4174,1 53276U 22086AL  23067.23400789  .00014117  00000-0  90271-3 0  9998,2 53276  53.2157  70.7881 0001355  84.2615 275.8532 15.08862495 35344,6917.812,95.436,540.614,538.739,0.0
53276.0,STARLINK-4174,PAYLOAD,2023-03-08 16:44:39,15.08870942,0.0001546,53.2164,68.7097,89.7686,270.3483,0.00052895,8.147e-05,0.0,0 STARLINK-4174,1 53276U 22086AL  23067.69768208  .00008147  00000-0  52895-3 0  9997,2 53276  53.2164  68.7097 0001546  89.7686 270.3483 15.08870942 35585,6917.786,95.436,540.72,538.581,0.0
53276.0,STARLINK-4174,PAYLOAD,2023-03-09 05:27:44,15.08847887,0.0001448,53.2158,66.3286,87.2296,272.8861,-4.6402e-05,-1.027e-05,0.0,0 STARLINK-4174,1 53276U 22086AL  23068.22760272 -.00001027  00000-0 -46402-4 0  9990,2 53276  53.2158  66.3286 0001448  87.2296 272.8861 15.08847887 35492,6917.856,95.437,540.723,538.72,0.0
53276.0,STARLINK-4174,PAYLOAD,2023-03-09 16:35:26,15.08846529,0.0001569,53.2151,64.2405,73.9387,286.1778,0.00043392,6.626e-05,0.0,0 STARLINK-4174,1 53276U 22086AL  23068.69128209  .00006626  00000-0  43392-3 0  9991,2 53276  53.2151  64.2405 0001569  73.9387 286.1778 15.08846529 35736,6917.86,95.437,540.811,538.64,0.0
53276.0,STARLINK-4174,PAYLOAD,2023-03-10 08:29:17,15.08855758,0.0001631,53.2171,61.2715,92.2148,267.9031,0.00059792,9.245e-05,0.0,0 STARLINK-4174,1 53276U 22086AL  23069.35367990  .00009245  00000-0  59792-3 0  9998,2 53276  53.2171  61.2715 0001631  92.2148 267.9031 15.08855758 35663,6917.832,95.437,540.826,538.569,0.0
53276.0,STARLINK-4174,PAYLOAD,2023-03-10 16:26:13,15.08843261,0.0001524,53.2164,59.7857,84.7815,275.3351,0.00034798,5.255e-05,0.0,0 STARLINK-4174,1 53276U 22086AL  23069.68488217  .00005255  00000-0  34798-3 0  9996,2 53276  53.2164  59.7857 0001524  84.7815 275.3351 15.08843261 35712,6917.87,95.437,540.79,538.681,0.0
53276.0,STARLINK-4174,PAYLOAD,2023-03-11 05:09:19,15.0884091,9.84e-05,53.2167,57.4074,84.5717,275.5387,0.00038786,5.891e-05,0.0,0 STARLINK-4174,1 53276U 22086AL  23070.21480439  .00005891  00000-0  38786-3 0  9992,2 53276  53.2167  57.4074 0000984  84.5717 275.5387 15.08840910 35796,6917.878,95.437,540.423,539.062,0.0
53276.0,STARLINK-4174,PAYLOAD,2023-03-11 06:44:42,15.08841592,0.0001166,53.2165,57.1105,77.8953,282.2169,0.0018579,0.00029405,0.0,0 STARLINK-4174,1 53276U 22086AL  23070.28104645  .00029405  00000-0  18579-2 0  9995,2 53276  53.2165  57.1105 0001166  77.8953 282.2169 15.08841592 35976,6917.876,95.437,540.547,538.934,0.0
53276.0,STARLINK-4174,PAYLOAD,2023-03-12 08:10:52,15.08853041,0.0001446,53.2175,52.3527,75.5051,284.6101,0.0011641,0.00018294,0.0,0 STARLINK-4174,1 53276U 22086AL  23071.34089036  .00018294  00000-0  11641-2 0  9996,2 53276  53.2175  52.3527 0001446  75.5051 284.6101 15.08853041 35960,6917.841,95.437,540.706,538.705,0.0
53276.0,STARLINK-4174,PAYLOAD,2023-03-12 22:29:21,15.08843505,0.000158,53.2168,49.6757,78.9031,281.2139,0.00060679,9.383e-05,0.0,0 STARLINK-4174,1 53276U 22086AL  23071.93705315  .00009383  00000-0  60679-3 0  9991,2 53276  53.2168  49.6757 0001580  78.9031 281.2139 15.08843505 36228,6917.87,95.437,540.828,538.642,0.0
53276.0,STARLINK-4174,PAYLOAD,2023-03-13 08:01:39,15.08850152,0.0001568,53.2167,47.8923,71.0346,289.0816,0.00051244,7.879e-05,0.0,0 STARLINK-4174,1 53276U 22086AL  23072.33449064  .00007879  00000-0  51244-3 0  9998,2 53276  53.2167  47.8923 0001568  71.0346 289.0816 15.08850152 36281,6917.849,95.437,540.799,538.63,0.0
53276.0,STARLINK-4174,PAYLOAD,2023-03-14 04:41:40,15.08844157,9.27e-05,53.2163,44.0234,93.7754,266.3344,0.00027964,4.166e-05,0.0,0 STARLINK-4174,1 53276U 22086AL  23073.19561174  .00004166  00000-0  27964-3 0  9998,2 53276  53.2163  44.0234 0000927  93.7754 266.3344 15.08844157 36241,6917.868,95.437,540.374,539.091,0.0
53276.0,STARLINK-4174,PAYLOAD,2023-03-14 07:52:27,15.08840761,0.0001394,53.2176,43.4264,118.2673,241.846,0.00015072,2.112e-05,0.0,0 STARLINK-4174,1 53276U 22086AL  23073.32809169  .00002112  00000-0  15072-3 0  9998,2 53276  53.2176  43.4264 0001394 118.2673 241.8460 15.08840761 36438,6917.878,95.438,540.707,538.779,0.0
53276.0,STARLINK-4174,PAYLOAD,2023-03-15 04:32:26,15.0887038,9.95e-05,53.2176,39.5637,112.138,247.9717,0.00073804,0.00011487,0.0,0 STARLINK-4174,1 53276U 22086AL  23074.18919908  .00011487  00000-0  73804-3 0  9998,2 53276  53.2176  39.5637 0000995 112.1380 247.9717 15.08870380 36399,6917.788,95.436,540.341,538.964,0.0
53276.0,STARLINK-4174,PAYLOAD,2023-03-15 06:07:49,15.08869664,0.0001058,53.2184,39.2696,114.4554,245.6549,0.00067205,0.00010433,0.0,0 STARLINK-4174,1 53276U 22086AL  23074.25543863  .00010433  00000-0  67205-3 0  9997,2 53276  53.2184  39.2696 0001058 114.4554 245.6549 15.08869664 36570,6917.79,95.436,540.387,538.923,0.0
